STARLINK-4213           
1 52872U 22062AU  26068.17146670  .00002882  00000+0  19901-3 0  9992
2 52872  53.2196  16.4199 0001236  90.1927 269.9207 15.08848261205984
DISKSAT A               
1 67222U 25305D   26068.54789610  .00013824  00000+0  90452-3 0  9996
2 67222  45.0023 251.6019 0004082 318.1929  41.8634 15.07741062 12266
